{"type": "FeatureCollection", "features": [ {"type": "Feature", "properties": {"norad_id": 34375, "name": "IRIDIUM 33 DEB", "group": "iridium-33-debris", "lat": 70.48403922302025, "lon": -11.148600996586811, "alt_km": 751.9918836993866, "timestamp": "2025-12-21T22:41:41.844373+00:00", "meta": {"OBJECT_NAME": "IRIDIUM 33 DEB", "OBJECT_ID": "1997-051FT", "EPOCH": "2025-12-21T00:46:06.767328", "MEAN_MOTION": 14.18006296, "ECCENTRICITY": 0.01037011, "INCLINATION": 86.4323, "RA_OF_ASC_NODE": 179.3579, "ARG_OF_PERICENTER": 100.8025, "MEAN_ANOMALY": 27.2657, "EPHEMERIS_TYPE": 0, "CLASSIFICATION_TYPE": "U", "NORAD_CAT_ID": 34375, "ELEMENT_SET_NO": 999, "REV_AT_EPOCH": 86829, "BSTAR": 0.00030848, "MEAN_MOTION_DOT": 6.86e-06, "MEAN_MOTION_DDOT": 0}, "tle": {"line1": "1 34375U 97051FT  25355.03202277  .00000686  00000+0  30848-3 0  9992", "line2": "2 34375  86.4323 179.3579 0103701 100.8025  27.2657 14.18006296868298"}}, "geometry": {"type": "Point", "coordinates": [-11.148600996586811, 70.48403922302025]}}, {"type": "Feature", "properties": {"norad_id": 34376, "name": "IRIDIUM 33 DEB", "group": "iridium-33-debris", "lat": 21.504420835021588, "lon": -179.06133361339707, "alt_km": 666.0329470140268, "timestamp": "2025-12-21T22:41:41.844383+00:00", "meta": {"OBJECT_NAME": "IRIDIUM 33 DEB", "OBJECT_ID": "1997-051FU", "EPOCH": "2025-12-21T12:07:24.797568", "MEAN_MOTION": 14.62675501, "ECCENTRICITY": 0.00281411, "INCLINATION": 86.2976, "RA_OF_ASC_NODE": 2.5986, "ARG_OF_PERICENTER": 137.7647, "MEAN_ANOMALY": 222.5739, "EPHEMERIS_TYPE": 0, "CLASSIFICATION_TYPE": "U", "NORAD_CAT_ID": 34376, "ELEMENT_SET_NO": 999, "REV_AT_EPOCH": 88135, "BSTAR": 0.0010610953, "MEAN_MOTION_DOT": 5.451e-05, "MEAN_MOTION_DDOT": 0}, "tle": {"line1": "1 34376U 97051FU  25355.50514812  .00005451  00000+0  10611-2 0  9996", "line2": "2 34376  86.2976   2.5986 0028141 137.7647 222.5739 14.62675501881356"}}, "geometry": {"type": "Point", "coordinates": [-179.06133361339707, 21.504420835021588]}}, {"type": "Feature", "properties": {"norad_id": 34486, "name": "IRIDIUM 33 DEB", "group": "iridium-33-debris", "lat": 38.813873814645916, "lon": 10.683265764664819, "alt_km": 569.3123017025264, "timestamp": "2025-12-21T22:41:41.844394+00:00", "meta": {"OBJECT_NAME": "IRIDIUM 33 DEB", "OBJECT_ID": "1997-051GB", "EPOCH": "2025-12-21T13:27:11.414592", "MEAN_MOTION": 14.96156216, "ECCENTRICITY": 0.00139233, "INCLINATION": 86.3924, "RA_OF_ASC_NODE": 7.952, "ARG_OF_PERICENTER": 87.2037, "MEAN_ANOMALY": 39.2111, "EPHEMERIS_TYPE": 0, "CLASSIFICATION_TYPE": "U", "NORAD_CAT_ID": 34486, "ELEMENT_SET_NO": 999, "REV_AT_EPOCH": 89118, "BSTAR": 0.0016334662, "MEAN_MOTION_DOT": 0.00018477, "MEAN_MOTION_DDOT": 0}, "tle": {"line1": "1 34486U 97051GB  25355.56054878  .00018477  00000+0  16335-2 0  9996", "line2": "2 34486  86.3924   7.9520 0013923  87.2037  39.2111 14.96156216891182"}}, "geometry": {"type": "Point", "coordinates": [10.683265764664819, 38.813873814645916]}}, {"type": "Feature", "properties": {"norad_id": 34487, "name": "IRIDIUM 33 DEB", "group": "iridium-33-debris", "lat": 71.6590490965428, "lon": 177.29045839738163, "alt_km": 717.620745179428, "timestamp": "2025-12-21T22:41:41.844404+00:00", "meta": {"OBJECT_NAME": "IRIDIUM 33 DEB", "OBJECT_ID": "1997-051GC", "EPOCH": "2025-12-21T00:51:13.870080", "MEAN_MOTION": 14.43225793, "ECCENTRICITY": 0.00332106, "INCLINATION": 86.343, "RA_OF_ASC_NODE": 8.8054, "ARG_OF_PERICENTER": 102.5675, "MEAN_ANOMALY": 320.0917, "EPHEMERIS_TYPE": 0, "CLASSIFICATION_TYPE": "U", "NORAD_CAT_ID": 34487, "ELEMENT_SET_NO": 999, "REV_AT_EPOCH": 88368, "BSTAR": 0.00013015301, "MEAN_MOTION_DOT": 4.61e-06, "MEAN_MOTION_DDOT": 0}, "tle": {"line1": "1 34487U 97051GC  25355.03557720  .00000461  00000+0  13015-3 0  9990", "line2": "2 34487  86.3430   8.8054 0033210 102.5675 320.0917 14.43225793883687"}}, "geometry": {"type": "Point", "coordinates": [177.29045839738163, 71.6590490965428]}}, {"type": "Feature", "properties": {"norad_id": 34488, "name": "IRIDIUM 33 DEB", "group": "iridium-33-debris", "lat": 84.11823362456728, "lon": -20.15710828211102, "alt_km": 459.23044980961186, "timestamp": "2025-12-21T22:41:41.844414+00:00", "meta": {"OBJECT_NAME": "IRIDIUM 33 DEB", "OBJECT_ID": "1997-051GD", "EPOCH": "2025-12-20T21:13:54.490080", "MEAN_MOTION": 15.31302202, "ECCENTRICITY": 0.0010948, "INCLINATION": 86.3254, "RA_OF_ASC_NODE": 301.7725, "ARG_OF_PERICENTER": 38.0894, "MEAN_ANOMALY": 322.1127, "EPHEMERIS_TYPE": 0, "CLASSIFICATION_TYPE": "U", "NORAD_CAT_ID": 34488, "ELEMENT_SET_NO": 999, "REV_AT_EPOCH": 89364, "BSTAR": 0.0030791, "MEAN_MOTION_DOT": 0.00094223, "MEAN_MOTION_DDOT": 0}, "tle": {"line1": "1 34488U 97051GD  25354.88465845  .00094223  00000+0  30791-2 0  9997", "line2": "2 34488  86.3254 301.7725 0010948  38.0894 322.1127 15.31302202893643"}}, "geometry": {"type": "Point", "coordinates": [-20.15710828211102, 84.11823362456728]}}, {"type": "Feature", "properties": {"norad_id": 34492, "name": "IRIDIUM 33 DEB", "group": "iridium-33-debris", "lat": -16.957872513588104, "lon": -30.171237362097116, "alt_km": 904.6649990341521, "timestamp": "2025-12-21T22:41:41.844424+00:00", "meta": {"OBJECT_NAME": "IRIDIUM 33 DEB", "OBJECT_ID": "1997-051GH", "EPOCH": "2025-12-19T10:45:18.347328", "MEAN_MOTION": 14.25846982, "ECCENTRICITY": 0.0188646, "INCLINATION": 86.4707, "RA_OF_ASC_NODE": 331.9164, "ARG_OF_PERICENTER": 216.3823, "MEAN_ANOMALY": 273.3437, "EPHEMERIS_TYPE": 0, "CLASSIFICATION_TYPE": "U", "NORAD_CAT_ID": 34492, "ELEMENT_SET_NO": 999, "REV_AT_EPOCH": 85154, "BSTAR": 0.0022012, "MEAN_MOTION_DOT": 6.332e-05, "MEAN_MOTION_DDOT": 0}, "tle": {"line1": "1 34492U 97051GH  25353.44812902  .00006332  00000+0  22012-2 0  9994", "line2": "2 34492  86.4707 331.9164 0188646 216.3823 273.3437 14.25846982851542"}}, "geometry": {"type": "Point", "coordinates": [-30.171237362097116, -16.957872513588104]}}, {"type": "Feature", "properties": {"norad_id": 34497, "name": "IRIDIUM 33 DEB", "group": "iridium-33-debris", "lat": -84.42942373487739, "lon": 6.588663598334787, "alt_km": 761.7687124648, "timestamp": "2025-12-21T22:41:41.844435+00:00", "meta": {"OBJECT_NAME": "IRIDIUM 33 DEB", "OBJECT_ID": "1997-051GN", "EPOCH": "2025-12-21T03:02:18.965760", "MEAN_MOTION": 14.27475874, "ECCENTRICITY": 0.00780469, "INCLINATION": 86.2771, "RA_OF_ASC_NODE": 48.8187, "ARG_OF_PERICENTER": 312.1215, "MEAN_ANOMALY": 76.3389, "EPHEMERIS_TYPE": 0, "CLASSIFICATION_TYPE": "U", "NORAD_CAT_ID": 34497, "ELEMENT_SET_NO": 999, "REV_AT_EPOCH": 87003, "BSTAR": 0.00042941712, "MEAN_MOTION_DOT": 1.107e-05, "MEAN_MOTION_DDOT": 0}, "tle": {"line1": "1 34497U 97051GN  25355.12660840  .00001107  00000+0  42942-3 0  9998", "line2": "2 34497  86.2771  48.8187 0078046 312.1215  76.3389 14.27475874870039"}}, "geometry": {"type": "Point", "coordinates": [6.588663598334787, -84.42942373487739]}}, {"type": "Feature", "properties": {"norad_id": 34508, "name": "IRIDIUM 33 DEB", "group": "iridium-33-debris", "lat": 75.37204075398412, "lon": 112.81368140595353, "alt_km": 737.9453260065156, "timestamp": "2025-12-21T22:41:41.844445+00:00", "meta": {"OBJECT_NAME": "IRIDIUM 33 DEB", "OBJECT_ID": "1997-051GZ", "EPOCH": "2025-12-21T00:38:21.315840", "MEAN_MOTION": 14.38484044, "ECCENTRICITY": 0.00666098, "INCLINATION": 86.371, "RA_OF_ASC_NODE": 99.1304, "ARG_OF_PERICENTER": 146.3518, "MEAN_ANOMALY": 214.1938, "EPHEMERIS_TYPE": 0, "CLASSIFICATION_TYPE": "U", "NORAD_CAT_ID": 34508, "ELEMENT_SET_NO": 999, "REV_AT_EPOCH": 87428, "BSTAR": 0.00080829336, "MEAN_MOTION_DOT": 2.552e-05, "MEAN_MOTION_DDOT": 0}, "tle": {"line1": "1 34508U 97051GZ  25355.02663560  .00002552  00000+0  80829-3 0  9993", "line2": "2 34508  86.3710  99.1304 0066609 146.3518 214.1938 14.38484044874285"}}, "geometry": {"type": "Point", "coordinates": [112.81368140595353, 75.37204075398412]}}, {"type": "Feature", "properties": {"norad_id": 34521, "name": "IRIDIUM 33 DEB", "group": "iridium-33-debris", "lat": -0.41377739613672465, "lon": 26.468496169432576, "alt_km": 687.0900477565892, "timestamp": "2025-12-21T22:41:41.844455+00:00", "meta": {"OBJECT_NAME": "IRIDIUM 33 DEB", "OBJECT_ID": "1997-051HN", "EPOCH": "2025-12-21T09:34:06.570624", "MEAN_MOTION": 14.63431866, "ECCENTRICITY": 0.00026113, "INCLINATION": 86.3787, "RA_OF_ASC_NODE": 26.7355, "ARG_OF_PERICENTER": 178.2335, "MEAN_ANOMALY": 181.8887, "EPHEMERIS_TYPE": 0, "CLASSIFICATION_TYPE": "U", "NORAD_CAT_ID": 34521, "ELEMENT_SET_NO": 999, "REV_AT_EPOCH": 88599, "BSTAR": 0.00062299152, "MEAN_MOTION_DOT": 3.244e-05, "MEAN_MOTION_DDOT": 0}, "tle": {"line1": "1 34521U 97051HN  25355.39868716  .00003244  00000+0  62299-3 0  9998", "line2": "2 34521  86.3787  26.7355 0002611 178.2335 181.8887 14.63431866885995"}}, "geometry": {"type": "Point", "coordinates": [26.468496169432576, -0.41377739613672465]}}, {"type": "Feature", "properties": {"norad_id": 34525, "name": "IRIDIUM 33 DEB", "group": "iridium-33-debris", "lat": -40.7813593922286, "lon": -133.94842948207005, "alt_km": 759.3561995382825, "timestamp": "2025-12-21T22:41:41.844465+00:00", "meta": {"OBJECT_NAME": "IRIDIUM 33 DEB", "OBJECT_ID": "1997-051HS", "EPOCH": "2025-12-21T03:29:36.485088", "MEAN_MOTION": 14.42923507, "ECCENTRICITY": 0.00064437, "INCLINATION": 86.372, "RA_OF_ASC_NODE": 43.2557, "ARG_OF_PERICENTER": 76.0018, "MEAN_ANOMALY": 311.4457, "EPHEMERIS_TYPE": 0, "CLASSIFICATION_TYPE": "U", "NORAD_CAT_ID": 34525, "ELEMENT_SET_NO": 999, "REV_AT_EPOCH": 88209, "BSTAR": 0.00023924914, "MEAN_MOTION_DOT": 8.19e-06, "MEAN_MOTION_DDOT": 0}, "tle": {"line1": "1 34525U 97051HS  25355.14556117  .00000819  00000+0  23925-3 0  9992", "line2": "2 34525  86.3720  43.2557 0006443  76.0018 311.4457 14.42923507882091"}}, "geometry": {"type": "Point", "coordinates": [-133.94842948207005, -40.7813593922286]}}]}